{
    "links": {
        "self": "http://www.neowsapp.com/rest/v1/neo/3774611?api_key=iIulBulltgU6a56xZRHN4H3l9WmuAYTsLGpBGhQ2"
    },
    "id": "3774611",
    "neo_reference_id": "3774611",
    "name": "(2017 JG3)",
    "designation": "2017 JG3",
    "nasa_jpl_url": "http://ssd.jpl.nasa.gov/sbdb.cgi?sstr=3774611",
    "absolute_magnitude_h": 25.6,
    "estimated_diameter": {
        "kilometers": {
            "estimated_diameter_min": 0.0201629919,
            "estimated_diameter_max": 0.0450858206
        },
        "meters": {
            "estimated_diameter_min": 20.1629919443,
            "estimated_diameter_max": 45.0858206172
        },
        "miles": {
            "estimated_diameter_min": 0.0125286985,
            "estimated_diameter_max": 0.0280150214
        },
        "feet": {
            "estimated_diameter_min": 66.1515504905,
            "estimated_diameter_max": 147.9193637137
        }
    },
    "is_potentially_hazardous_asteroid": false,
    "close_approach_data": [
        {
            "close_approach_date": "2017-05-10",
            "close_approach_date_full": "2017-May-10 05:58",
            "epoch_date_close_approach": 1494395880000,
            "relative_velocity": {
                "kilometers_per_second": "15.2716594486",
                "kilometers_per_hour": "54977.9740147904",
                "miles_per_hour": "34161.175020468"
            },
            "miss_distance": {
                "astronomical": "0.0196338329",
                "lunar": "7.6375609981",
                "kilometers": "2937179.581775923",
                "miles": "1825078.7620888174"
            },
            "orbiting_body": "Earth"
        },
        {
            "close_approach_date": "2022-07-24",
            "close_approach_date_full": "2022-Jul-24 23:22",
            "epoch_date_close_approach": 1658704920000,
            "relative_velocity": {
                "kilometers_per_second": "9.4569002357",
                "kilometers_per_hour": "34044.840848453",
                "miles_per_hour": "21154.1401371957"
            },
            "miss_distance": {
                "astronomical": "1.8513208944",
                "lunar": "720.1638279216",
                "kilometers": "276953662.488734928",
                "miles": "172091025.9035928864"
            },
            "orbiting_body": "Juptr"
        },
        {
            "close_approach_date": "2109-05-14",
            "close_approach_date_full": "2109-May-14 08:41",
            "epoch_date_close_approach": 4397964060000,
            "relative_velocity": {
                "kilometers_per_second": "19.5414883175",
                "kilometers_per_hour": "70349.3579431256",
                "miles_per_hour": "43712.3552174938"
            },
            "miss_distance": {
                "astronomical": "0.3027378567",
                "lunar": "117.7650262563",
                "kilometers": "45288938.530685229",
                "miles": "28141241.4762610002"
            },
            "orbiting_body": "Earth"
        }
    ],
    "orbital_data": {
        "orbit_id": "2",
        "orbit_determination_date": "2017-05-21 06:17:30",
        "first_observation_date": "2017-05-14",
        "last_observation_date": "2017-05-21",
        "data_arc_in_days": 7,
        "observations_used": 23,
        "orbit_uncertainty": "8",
        "minimum_orbit_intersection": ".00892882",
        "jupiter_tisserand_invariant": "3.135",
        "epoch_osculation": "2457889.5",
        "eccentricity": ".6660613449483116",
        "semi_major_axis": "2.468882677661191",
        "inclination": "1.578737671429624",
        "ascending_node_longitude": "209.0415032856103",
        "orbital_period": "1416.932317137662",
        "perihelion_distance": ".8244553608585893",
        "perihelion_argument": "321.6509035609345",
        "aphelion_distance": "4.113309994463793",
        "perihelion_time": "2457844.339146934251",
        "mean_anomaly": "11.47401813553957",
        "mean_motion": ".2540700043649468",
        "equinox": "J2000",
        "orbit_class": {
            "orbit_class_type": "APO",
            "orbit_class_description": "Near-Earth asteroid orbits which cross the Earth’s orbit similar to that of 1862 Apollo",
            "orbit_class_range": "a (semi-major axis) > 1.0 AU; q (perihelion) < 1.017 AU"
        }
    },
    "is_sentry_object": false
}